COSMOS 2251 DEB         
1 40223U 93036BVC 26072.50481711  .00117746  00000+0  57797-2 0  9998
2 40223  73.9295 260.2320 0009724  81.9858 308.7789 15.17458071607446
COSMOS 2251 DEB         
1 40228U 93036BVH 26069.78310268  .00000885  00000+0  28142-3 0  9995
2 40228  74.0521  97.7463 0022192 144.1707 332.4899 14.41201503601896
COSMOS 2251 DEB         
1 40230U 93036BVK 26052.81290572  .00001871  00000+0  49131-3 0  9996
2 40230  74.0433  93.5910 0015987 141.4165 336.7380 14.49812998600013
COSMOS 2251 DEB         
1 40233U 93036BVN 26070.60581888  .00004267  00000+0  89278-3 0  9997
2 40233  73.9390 292.8122 0044474 345.7441  14.2465 14.59494430604333
COSMOS 2251 DEB         
1 40236U 93036BVR 26068.49119629  .00000711  00000+0  78257-3 0  9999
2 40236  73.5426   6.9920 0537579 239.4503 115.2498 13.24830828547737
COSMOS 2251 DEB         
1 40792U 93036BVV 26073.19082220  .00007045  00000+0  12072-2 0  9994
2 40792  74.0426 230.7375 0017601 309.1586 224.4372 14.68847392645260
COSMOS 2251 DEB         
1 40794U 93036BVX 26074.31931862  .00027433  00000+0  21053-2 0  9998
2 40794  73.9735 296.0824 0008242  73.6953  43.8500 15.01651783633100
COSMOS 2251 DEB         
1 40796U 93036BVZ 26073.95477182  .00007805  00000+0  93615-3 0  9994
2 40796  74.0137 319.5680 0052492  73.5082 304.9135 14.83196158775256
COSMOS 2251 DEB         
1 40799U 93036BWC 26074.23140892  .00006458  00000+0  48278-3 0  9992
2 40799  73.9242 269.8784 0114757 130.9728 230.1457 14.97791744513618
COSMOS 2251 DEB         
1 40802U 93036BWF 26072.97859259  .00005030  00000+0  66993-3 0  9999
2 40802  74.0432 333.8520 0059448  48.5329 312.0929 14.78694170657574
COSMOS 2251 DEB         
1 40803U 93036BWG 26072.45065830  .00001459  00000+0  36505-3 0  9994
2 40803  74.0103 240.7857 0031934  74.0312 286.4364 14.52081973600696
COSMOS 2251 DEB         
1 40808U 93036BWM 26072.15947339  .00008171  00000+0  13852-2 0  9996
2 40808  74.0428 330.6603 0007508 332.9151 177.9321 14.69368289649467
COSMOS 2251 DEB         
1 40810U 93036BWP 26072.52029178  .00003325  00000+0  70638-3 0  9994
2 40810  74.0338 261.7580 0017409  24.7251 335.4745 14.59402321630079
COSMOS 2251 DEB         
1 46271U 93036BWT 26074.25356607  .00000935  00000+0  23766-3 0  9997
2 46271  74.0440 264.1599 0039962 359.4533   0.6577 14.51679571859843
COSMOS 2251 DEB         
1 46430U 93036BWU 26073.03346589  .00007748  00000+0  17772-2 0  9995
2 46430  73.9122 182.9919 0094076  82.0711 279.1114 14.52971249810083
COSMOS 2251 DEB         
1 46432U 93036BWW 26071.09610134  .00001120  00000+0  11568-2 0  9996
2 46432  73.8738 330.4885 0472138  72.8556 355.2565 13.36780020681608
