[{"OBJECT_NAME":"COSMOS 2251 DEB","OBJECT_ID":"1993-036BVC","EPOCH":"2026-03-13T12:06:56.198304","MEAN_MOTION":15.17458071,"ECCENTRICITY":0.00097245,"INCLINATION":73.9295,"RA_OF_ASC_NODE":260.232,"ARG_OF_PERICENTER":81.9858,"MEAN_ANOMALY":308.7789,"EPHEMERIS_TYPE":0,"CLASSIFICATION_TYPE":"U","NORAD_CAT_ID":40223,"ELEMENT_SET_NO":999,"REV_AT_EPOCH":60744,"BSTAR":0.005779712,"MEAN_MOTION_DOT":0.00117746,"MEAN_MOTION_DDOT":0},{"OBJECT_NAME":"COSMOS 2251 DEB","OBJECT_ID":"1993-036BVH","EPOCH":"2026-03-10T18:47:40.071552","MEAN_MOTION":14.41201503,"ECCENTRICITY":0.00221922,"INCLINATION":74.0521,"RA_OF_ASC_NODE":97.7463,"ARG_OF_PERICENTER":144.1707,"MEAN_ANOMALY":332.4899,"EPHEMERIS_TYPE":0,"CLASSIFICATION_TYPE":"U","NORAD_CAT_ID":40228,"ELEMENT_SET_NO":999,"REV_AT_EPOCH":60189,"BSTAR":0.00028141707,"MEAN_MOTION_DOT":8.85e-6,"MEAN_MOTION_DDOT":0},{"OBJECT_NAME":"COSMOS 2251 DEB","OBJECT_ID":"1993-036BVK","EPOCH":"2026-02-21T19:30:35.054208","MEAN_MOTION":14.49812998,"ECCENTRICITY":0.00159873,"INCLINATION":74.0433,"RA_OF_ASC_NODE":93.591,"ARG_OF_PERICENTER":141.4165,"MEAN_ANOMALY":336.738,"EPHEMERIS_TYPE":0,"CLASSIFICATION_TYPE":"U","NORAD_CAT_ID":40230,"ELEMENT_SET_NO":999,"REV_AT_EPOCH":60001,"BSTAR":0.00049130745,"MEAN_MOTION_DOT":1.871e-5,"MEAN_MOTION_DDOT":0},{"OBJECT_NAME":"COSMOS 2251 DEB","OBJECT_ID":"1993-036BVN","EPOCH":"2026-03-11T14:32:22.751232","MEAN_MOTION":14.5949443,"ECCENTRICITY":0.00444741,"INCLINATION":73.939,"RA_OF_ASC_NODE":292.8122,"ARG_OF_PERICENTER":345.7441,"MEAN_ANOMALY":14.2465,"EPHEMERIS_TYPE":0,"CLASSIFICATION_TYPE":"U","NORAD_CAT_ID":40233,"ELEMENT_SET_NO":999,"REV_AT_EPOCH":60433,"BSTAR":0.00089277789,"MEAN_MOTION_DOT":4.267e-5,"MEAN_MOTION_DDOT":0},{"OBJECT_NAME":"COSMOS 2251 DEB","OBJECT_ID":"1993-036BVR","EPOCH":"2026-03-09T11:47:19.359456","MEAN_MOTION":13.24830828,"ECCENTRICITY":0.05375796,"INCLINATION":73.5426,"RA_OF_ASC_NODE":6.992,"ARG_OF_PERICENTER":239.4503,"MEAN_ANOMALY":115.2498,"EPHEMERIS_TYPE":0,"CLASSIFICATION_TYPE":"U","NORAD_CAT_ID":40236,"ELEMENT_SET_NO":999,"REV_AT_EPOCH":54773,"BSTAR":0.00078257456,"MEAN_MOTION_DOT":7.11e-6,"MEAN_MOTION_DDOT":0},{"OBJECT_NAME":"COSMOS 2251 DEB","OBJECT_ID":"1993-036BVV","EPOCH":"2026-03-14T04:34:47.038080","MEAN_MOTION":14.68847392,"ECCENTRICITY":0.00176016,"INCLINATION":74.0426,"RA_OF_ASC_NODE":230.7375,"ARG_OF_PERICENTER":309.1586,"MEAN_ANOMALY":224.4372,"EPHEMERIS_TYPE":0,"CLASSIFICATION_TYPE":"U","NORAD_CAT_ID":40792,"ELEMENT_SET_NO":999,"REV_AT_EPOCH":64526,"BSTAR":0.0012072084,"MEAN_MOTION_DOT":7.045e-5,"MEAN_MOTION_DDOT":0},{"OBJECT_NAME":"COSMOS 2251 DEB","OBJECT_ID":"1993-036BVX","EPOCH":"2026-03-15T07:39:49.128768","MEAN_MOTION":15.01651783,"ECCENTRICITY":0.00082422,"INCLINATION":73.9735,"RA_OF_ASC_NODE":296.0824,"ARG_OF_PERICENTER":73.6953,"MEAN_ANOMALY":43.85,"EPHEMERIS_TYPE":0,"CLASSIFICATION_TYPE":"U","NORAD_CAT_ID":40794,"ELEMENT_SET_NO":999,"REV_AT_EPOCH":63310,"BSTAR":0.0021053469,"MEAN_MOTION_DOT":0.00027433,"MEAN_MOTION_DDOT":0},{"OBJECT_NAME":"COSMOS 2251 DEB","OBJECT_ID":"1993-036BVZ","EPOCH":"2026-03-14T22:54:52.285248","MEAN_MOTION":14.83196158,"ECCENTRICITY":0.00524928,"INCLINATION":74.0137,"RA_OF_ASC_NODE":319.568,"ARG_OF_PERICENTER":73.5082,"MEAN_ANOMALY":304.9135,"EPHEMERIS_TYPE":0,"CLASSIFICATION_TYPE":"U","NORAD_CAT_ID":40796,"ELEMENT_SET_NO":999,"REV_AT_EPOCH":77525,"BSTAR":0.00093615085,"MEAN_MOTION_DOT":7.805e-5,"MEAN_MOTION_DDOT":0},{"OBJECT_NAME":"COSMOS 2251 DEB","OBJECT_ID":"1993-036BWC","EPOCH":"2026-03-15T05:33:13.730688","MEAN_MOTION":14.97791744,"ECCENTRICITY":0.01147578,"INCLINATION":73.9242,"RA_OF_ASC_NODE":269.8784,"ARG_OF_PERICENTER":130.9728,"MEAN_ANOMALY":230.1457,"EPHEMERIS_TYPE":0,"CLASSIFICATION_TYPE":"U","NORAD_CAT_ID":40799,"ELEMENT_SET_NO":999,"REV_AT_EPOCH":51361,"BSTAR":0.00048277699,"MEAN_MOTION_DOT":6.458e-5,"MEAN_MOTION_DDOT":0},{"OBJECT_NAME":"COSMOS 2251 DEB","OBJECT_ID":"1993-036BWF","EPOCH":"2026-03-13T23:29:10.399776","MEAN_MOTION":14.7869417,"ECCENTRICITY":0.00594487,"INCLINATION":74.0432,"RA_OF_ASC_NODE":333.852,"ARG_OF_PERICENTER":48.5329,"MEAN_ANOMALY":312.0929,"EPHEMERIS_TYPE":0,"CLASSIFICATION_TYPE":"U","NORAD_CAT_ID":40802,"ELEMENT_SET_NO":999,"REV_AT_EPOCH":65757,"BSTAR":0.00066993256,"MEAN_MOTION_DOT":5.03e-5,"MEAN_MOTION_DDOT":0},{"OBJECT_NAME":"COSMOS 2251 DEB","OBJECT_ID":"1993-036BWG","EPOCH":"2026-03-13T10:48:56.877120","MEAN_MOTION":14.52081973,"ECCENTRICITY":0.00319342,"INCLINATION":74.0103,"RA_OF_ASC_NODE":240.7857,"ARG_OF_PERICENTER":74.0312,"MEAN_ANOMALY":286.4364,"EPHEMERIS_TYPE":0,"CLASSIFICATION_TYPE":"U","NORAD_CAT_ID":40803,"ELEMENT_SET_NO":999,"REV_AT_EPOCH":60069,"BSTAR":0.00036505463,"MEAN_MOTION_DOT":1.459e-5,"MEAN_MOTION_DDOT":0},{"OBJECT_NAME":"COSMOS 2251 DEB","OBJECT_ID":"1993-036BWM","EPOCH":"2026-03-13T03:49:38.500896","MEAN_MOTION":14.69368289,"ECCENTRICITY":0.00075084,"INCLINATION":74.0428,"RA_OF_ASC_NODE":330.6603,"ARG_OF_PERICENTER":332.9151,"MEAN_ANOMALY":177.9321,"EPHEMERIS_TYPE":0,"CLASSIFICATION_TYPE":"U","NORAD_CAT_ID":40808,"ELEMENT_SET_NO":999,"REV_AT_EPOCH":64946,"BSTAR":0.0013852055,"MEAN_MOTION_DOT":8.171e-5,"MEAN_MOTION_DDOT":0},{"OBJECT_NAME":"COSMOS 2251 DEB","OBJECT_ID":"1993-036BWP","EPOCH":"2026-03-13T12:29:13.209792","MEAN_MOTION":14.59402321,"ECCENTRICITY":0.00174094,"INCLINATION":74.0338,"RA_OF_ASC_NODE":261.758,"ARG_OF_PERICENTER":24.7251,"MEAN_ANOMALY":335.4745,"EPHEMERIS_TYPE":0,"CLASSIFICATION_TYPE":"U","NORAD_CAT_ID":40810,"ELEMENT_SET_NO":999,"REV_AT_EPOCH":63007,"BSTAR":0.00070638041,"MEAN_MOTION_DOT":3.325e-5,"MEAN_MOTION_DDOT":0},{"OBJECT_NAME":"COSMOS 2251 DEB","OBJECT_ID":"1993-036BWT","EPOCH":"2026-03-15T06:05:08.108448","MEAN_MOTION":14.51679571,"ECCENTRICITY":0.00399623,"INCLINATION":74.044,"RA_OF_ASC_NODE":264.1599,"ARG_OF_PERICENTER":359.4533,"MEAN_ANOMALY":0.6577,"EPHEMERIS_TYPE":0,"CLASSIFICATION_TYPE":"U","NORAD_CAT_ID":46271,"ELEMENT_SET_NO":999,"REV_AT_EPOCH":85984,"BSTAR":0.00023765577,"MEAN_MOTION_DOT":9.35e-6,"MEAN_MOTION_DDOT":0},{"OBJECT_NAME":"COSMOS 2251 DEB","OBJECT_ID":"1993-036BWU","EPOCH":"2026-03-14T00:48:11.452896","MEAN_MOTION":14.52971249,"ECCENTRICITY":0.00940762,"INCLINATION":73.9122,"RA_OF_ASC_NODE":182.9919,"ARG_OF_PERICENTER":82.0711,"MEAN_ANOMALY":279.1114,"EPHEMERIS_TYPE":0,"CLASSIFICATION_TYPE":"U","NORAD_CAT_ID":46430,"ELEMENT_SET_NO":999,"REV_AT_EPOCH":81008,"BSTAR":0.0017772461,"MEAN_MOTION_DOT":7.748e-5,"MEAN_MOTION_DDOT":0},{"OBJECT_NAME":"COSMOS 2251 DEB","OBJECT_ID":"1993-036BWW","EPOCH":"2026-03-12T02:18:23.155776","MEAN_MOTION":13.3678002,"ECCENTRICITY":0.04721385,"INCLINATION":73.8738,"RA_OF_ASC_NODE":330.4885,"ARG_OF_PERICENTER":72.8556,"MEAN_ANOMALY":355.2565,"EPHEMERIS_TYPE":0,"CLASSIFICATION_TYPE":"U","NORAD_CAT_ID":46432,"ELEMENT_SET_NO":999,"REV_AT_EPOCH":68160,"BSTAR":0.0011568041,"MEAN_MOTION_DOT":1.12e-5,"MEAN_MOTION_DDOT":0}]
